{
  "type": "FeatureCollection",
  "features": [
    {
      "type": "Feature",
      "properties": {
        "norad_id": 25590,
        "name": "COSMOS 2361",
        "group": "musson",
        "lat": 22.858736278178522,
        "lon": 168.0169618117201,
        "alt_km": 1003.5308698565559,
        "timestamp": "2025-12-03T08:58:46.271047+00:00",
        "meta_object_name": "COSMOS 2361",
        "meta_object_id": "1998-076A",
        "meta_epoch": "2025-12-03T03:16:39.347328",
        "meta_mean_motion": 13.73215872,
        "meta_eccentricity": 0.0030159,
        "meta_inclination": 82.9342,
        "meta_ra_of_asc_node": 351.1897,
        "meta_arg_of_pericenter": 293.4817,
        "meta_mean_anomaly": 129.7779,
        "meta_ephemeris_type": 0,
        "meta_classification_type": "U",
        "meta_norad_cat_id": 25590,
        "meta_element_set_no": 999,
        "meta_rev_at_epoch": 34979,
        "meta_bstar": 8.141e-05,
        "meta_mean_motion_dot": 9e-07,
        "meta_mean_motion_ddot": 0,
        "tle_line1": "1 25590U 98076A   25337.13656652  .00000090  00000+0  81410-4 0  9991",
        "tle_line2": "2 25590  82.9342 351.1897 0030159 293.4817 129.7779 13.73215872349790"
      },
      "geometry": {
        "type": "Point",
        "coordinates": [
          168.0169618117201,
          22.858736278178522
        ]
      }
    },
    {
      "type": "Feature",
      "properties": {
        "norad_id": 26818,
        "name": "COSMOS 2378",
        "group": "musson",
        "lat": -18.350969840338966,
        "lon": -170.97025576489395,
        "alt_km": 970.0327168578106,
        "timestamp": "2025-12-03T08:58:46.271070+00:00",
        "meta_object_name": "COSMOS 2378",
        "meta_object_id": "2001-023A",
        "meta_epoch": "2025-12-03T03:02:16.818720",
        "meta_mean_motion": 13.74140638,
        "meta_eccentricity": 0.003191,
        "meta_inclination": 82.928,
        "meta_ra_of_asc_node": 6.8533,
        "meta_arg_of_pericenter": 232.3539,
        "meta_mean_anomaly": 182.248,
        "meta_ephemeris_type": 0,
        "meta_classification_type": "U",
        "meta_norad_cat_id": 26818,
        "meta_element_set_no": 999,
        "meta_rev_at_epoch": 22791,
        "meta_bstar": 6.5122e-05,
        "meta_mean_motion_dot": 7.6e-07,
        "meta_mean_motion_ddot": 0,
        "tle_line1": "1 26818U 01023A   25337.12658355  .00000076  00000+0  65122-4 0  9998",
        "tle_line2": "2 26818  82.9280   6.8533 0031910 232.3539 182.2480 13.74140638227915"
      },
      "geometry": {
        "type": "Point",
        "coordinates": [
          -170.97025576489395,
          -18.350969840338966
        ]
      }
    },
    {
      "type": "Feature",
      "properties": {
        "norad_id": 27436,
        "name": "COSMOS 2389",
        "group": "musson",
        "lat": 10.702829573439931,
        "lon": -44.740818634169955,
        "alt_km": 973.4195616397719,
        "timestamp": "2025-12-03T08:58:46.271085+00:00",
        "meta_object_name": "COSMOS 2389",
        "meta_object_id": "2002-026A",
        "meta_epoch": "2025-12-02T22:45:19.156032",
        "meta_mean_motion": 13.75153071,
        "meta_eccentricity": 0.0047787,
        "meta_inclination": 82.9494,
        "meta_ra_of_asc_node": 314.2342,
        "meta_arg_of_pericenter": 87.3287,
        "meta_mean_anomaly": 336.3106,
        "meta_ephemeris_type": 0,
        "meta_classification_type": "U",
        "meta_norad_cat_id": 27436,
        "meta_element_set_no": 999,
        "meta_rev_at_epoch": 18014,
        "meta_bstar": 6.9714e-05,
        "meta_mean_motion_dot": 8.3e-07,
        "meta_mean_motion_ddot": 0,
        "tle_line1": "1 27436U 02026A   25336.94813838  .00000083  00000+0  69714-4 0  9996",
        "tle_line2": "2 27436  82.9494 314.2342 0047787  87.3287 336.3106 13.75153071180146"
      },
      "geometry": {
        "type": "Point",
        "coordinates": [
          -44.740818634169955,
          10.702829573439931
        ]
      }
    },
    {
      "type": "Feature",
      "properties": {
        "norad_id": 27818,
        "name": "COSMOS 2398",
        "group": "musson",
        "lat": 56.24714710208411,
        "lon": -69.72427059267999,
        "alt_km": 981.4225237667661,
        "timestamp": "2025-12-03T08:58:46.271097+00:00",
        "meta_object_name": "COSMOS 2398",
        "meta_object_id": "2003-023A",
        "meta_epoch": "2025-12-03T03:30:29.206368",
        "meta_mean_motion": 13.72384251,
        "meta_eccentricity": 0.0032213,
        "meta_inclination": 82.9475,
        "meta_ra_of_asc_node": 279.7683,
        "meta_arg_of_pericenter": 137.5549,
        "meta_mean_anomaly": 234.0759,
        "meta_ephemeris_type": 0,
        "meta_classification_type": "U",
        "meta_norad_cat_id": 27818,
        "meta_element_set_no": 999,
        "meta_rev_at_epoch": 12685,
        "meta_bstar": 4.5239e-05,
        "meta_mean_motion_dot": 5.7e-07,
        "meta_mean_motion_ddot": 0,
        "tle_line1": "1 27818U 03023A   25337.14617137  .00000057  00000+0  45239-4 0  9992",
        "tle_line2": "2 27818  82.9475 279.7683 0032213 137.5549 234.0759 13.72384251126858"
      },
      "geometry": {
        "type": "Point",
        "coordinates": [
          -69.72427059267999,
          56.24714710208411
        ]
      }
    },
    {
      "type": "Feature",
      "properties": {
        "norad_id": 28380,
        "name": "COSMOS 2407",
        "group": "musson",
        "lat": 58.127817708337965,
        "lon": 28.36549895821558,
        "alt_km": 948.7971889078899,
        "timestamp": "2025-12-03T08:58:46.271109+00:00",
        "meta_object_name": "COSMOS 2407",
        "meta_object_id": "2004-028A",
        "meta_epoch": "2025-12-03T03:41:25.834272",
        "meta_mean_motion": 13.76311996,
        "meta_eccentricity": 0.0040531,
        "meta_inclination": 82.9614,
        "meta_ra_of_asc_node": 219.9894,
        "meta_arg_of_pericenter": 80.8365,
        "meta_mean_anomaly": 28.6871,
        "meta_ephemeris_type": 0,
        "meta_classification_type": "U",
        "meta_norad_cat_id": 28380,
        "meta_element_set_no": 999,
        "meta_rev_at_epoch": 7291,
        "meta_bstar": 9.2931e-05,
        "meta_mean_motion_dot": 1.07e-06,
        "meta_mean_motion_ddot": 0,
        "tle_line1": "1 28380U 04028A   25337.15377123  .00000107  00000+0  92931-4 0  9999",
        "tle_line2": "2 28380  82.9614 219.9894 0040531  80.8365  28.6871 13.76311996 72915"
      },
      "geometry": {
        "type": "Point",
        "coordinates": [
          28.36549895821558,
          58.127817708337965
        ]
      }
    },
    {
      "type": "Feature",
      "properties": {
        "norad_id": 28521,
        "name": "COSMOS 2414",
        "group": "musson",
        "lat": -6.109299609156641,
        "lon": -169.0174397407617,
        "alt_km": 968.8704086901053,
        "timestamp": "2025-12-03T08:58:46.271120+00:00",
        "meta_object_name": "COSMOS 2414",
        "meta_object_id": "2005-002A",
        "meta_epoch": "2025-12-03T02:05:18.373344",
        "meta_mean_motion": 13.87900936,
        "meta_eccentricity": 0.0040299,
        "meta_inclination": 82.9499,
        "meta_ra_of_asc_node": 191.9586,
        "meta_arg_of_pericenter": 166.814,
        "meta_mean_anomaly": 193.4086,
        "meta_ephemeris_type": 0,
        "meta_classification_type": "U",
        "meta_norad_cat_id": 28521,
        "meta_element_set_no": 999,
        "meta_rev_at_epoch": 5661,
        "meta_bstar": 8.3699e-05,
        "meta_mean_motion_dot": 1.16e-06,
        "meta_mean_motion_ddot": 0,
        "tle_line1": "1 28521U 05002A   25337.08701821  .00000116  00000+0  83699-4 0  9998",
        "tle_line2": "2 28521  82.9499 191.9586 0040299 166.8140 193.4086 13.87900936 56615"
      },
      "geometry": {
        "type": "Point",
        "coordinates": [
          -169.0174397407617,
          -6.109299609156641
        ]
      }
    },
    {
      "type": "Feature",
      "properties": {
        "norad_id": 32052,
        "name": "COSMOS 2429",
        "group": "musson",
        "lat": -17.772981070741636,
        "lon": 172.477076754483,
        "alt_km": 1006.4382095271831,
        "timestamp": "2025-12-03T08:58:46.271131+00:00",
        "meta_object_name": "COSMOS 2429",
        "meta_object_id": "2007-038A",
        "meta_epoch": "2025-12-03T02:47:07.495872",
        "meta_mean_motion": 13.75147992,
        "meta_eccentricity": 0.003964,
        "meta_inclination": 82.9805,
        "meta_ra_of_asc_node": 350.4039,
        "meta_arg_of_pericenter": 64.0381,
        "meta_mean_anomaly": 296.4851,
        "meta_ephemeris_type": 0,
        "meta_classification_type": "U",
        "meta_norad_cat_id": 32052,
        "meta_element_set_no": 999,
        "meta_rev_at_epoch": 91470,
        "meta_bstar": 7.4241e-05,
        "meta_mean_motion_dot": 8.7e-07,
        "meta_mean_motion_ddot": 0,
        "tle_line1": "1 32052U 07038A   25337.11605898  .00000087  00000+0  74241-4 0  9994",
        "tle_line2": "2 32052  82.9805 350.4039 0039640  64.0381 296.4851 13.75147992914708"
      },
      "geometry": {
        "type": "Point",
        "coordinates": [
          172.477076754483,
          -17.772981070741636
        ]
      }
    },
    {
      "type": "Feature",
      "properties": {
        "norad_id": 35635,
        "name": "COSMOS 2454",
        "group": "musson",
        "lat": -24.089635316562944,
        "lon": 172.57521387505645,
        "alt_km": 942.4675085677181,
        "timestamp": "2025-12-03T08:58:46.271142+00:00",
        "meta_object_name": "COSMOS 2454",
        "meta_object_id": "2009-039A",
        "meta_epoch": "2025-12-03T02:44:51.040032",
        "meta_mean_motion": 13.89926714,
        "meta_eccentricity": 0.0020475,
        "meta_inclination": 82.9556,
        "meta_ra_of_asc_node": 175.9412,
        "meta_arg_of_pericenter": 99.467,
        "meta_mean_anomaly": 17.9936,
        "meta_ephemeris_type": 0,
        "meta_classification_type": "U",
        "meta_norad_cat_id": 35635,
        "meta_element_set_no": 999,
        "meta_rev_at_epoch": 83016,
        "meta_bstar": 7.3095e-05,
        "meta_mean_motion_dot": 1.06e-06,
        "meta_mean_motion_ddot": 0,
        "tle_line1": "1 35635U 09039A   25337.11447963  .00000106  00000+0  73095-4 0  9992",
        "tle_line2": "2 35635  82.9556 175.9412 0020475  99.4670  17.9936 13.89926714830164"
      },
      "geometry": {
        "type": "Point",
        "coordinates": [
          172.57521387505645,
          -24.089635316562944
        ]
      }
    },
    {
      "type": "Feature",
      "properties": {
        "norad_id": 36519,
        "name": "COSMOS 2463",
        "group": "musson",
        "lat": -82.80614725810706,
        "lon": -44.5570916064485,
        "alt_km": 982.2155515631221,
        "timestamp": "2025-12-03T08:58:46.271162+00:00",
        "meta_object_name": "COSMOS 2463",
        "meta_object_id": "2010-017A",
        "meta_epoch": "2025-12-03T02:31:10.216704",
        "meta_mean_motion": 13.71647794,
        "meta_eccentricity": 0.0035108,
        "meta_inclination": 82.9621,
        "meta_ra_of_asc_node": 33.7922,
        "meta_arg_of_pericenter": 315.6881,
        "meta_mean_anomaly": 67.6819,
        "meta_ephemeris_type": 0,
        "meta_classification_type": "U",
        "meta_norad_cat_id": 36519,
        "meta_element_set_no": 999,
        "meta_rev_at_epoch": 78105,
        "meta_bstar": 7.4931e-05,
        "meta_mean_motion_dot": 8.3e-07,
        "meta_mean_motion_ddot": 0,
        "tle_line1": "1 36519U 10017A   25337.10497936  .00000083  00000+0  74931-4 0  9990",
        "tle_line2": "2 36519  82.9621  33.7922 0035108 315.6881  67.6819 13.71647794781056"
      },
      "geometry": {
        "type": "Point",
        "coordinates": [
          -44.5570916064485,
          -82.80614725810706
        ]
      }
    }
  ]
}